ONEWEB-0020             
1 45133U 20008C   24159.37112275  .00000614  00000+0  17215-2 0  9993
2 45133  87.8942 183.3450 0002096  86.9826 273.1541 13.10370984211458
ONEWEB-0021             
1 45134U 20008D   24159.76784089  .00000005  00000+0 -22616-4 0  9993
2 45134  87.8942 183.2816 0002223  96.8363 263.3018 13.10371400212682
ONEWEB-0023             
1 45136U 20008F   24158.78765283 -.00000624  00000+0 -18252-2 0  9998
2 45136  87.8946 183.4651 0001652  96.8783 263.2532 13.10373117211112
ONEWEB-0024             
1 45137U 20008G   24159.36946252  .00000673  00000+0  18903-2 0  9996
2 45137  87.8935 183.3390 0002180  92.8006 267.3371 13.10371167211356
ONEWEB-0025             
1 45138U 20008H   24158.77684556 -.00000314  00000+0 -93520-3 0  9990
2 45138  87.8933 183.4563 0002035  98.1088 262.0270 13.10370047211600
ONEWEB-0026             
1 45139U 20008J   24159.38508209  .00000256  00000+0  68530-3 0  9995
2 45139  87.8966 168.2590 0002067  84.8583 275.2781 13.11418488214143
ONEWEB-0028             
1 45140U 20008K   24159.49273461  .00000155  00000+0  40071-3 0  9996
2 45140  87.8959 168.2784 0002106 108.6292 251.5065 13.11416000211673
ONEWEB-0032             
1 45141U 20008L   24159.02084753 -.00000653  00000+0 -19073-2 0  9992
2 45141  87.8935 183.4538 0002138  96.7174 263.4196 13.10373157211362
